{
    "links": {
        "self": "http://www.neowsapp.com/rest/v1/neo/3831719?api_key=iIulBulltgU6a56xZRHN4H3l9WmuAYTsLGpBGhQ2"
    },
    "id": "3831719",
    "neo_reference_id": "3831719",
    "name": "(2018 TJ4)",
    "designation": "2018 TJ4",
    "nasa_jpl_url": "http://ssd.jpl.nasa.gov/sbdb.cgi?sstr=3831719",
    "absolute_magnitude_h": 25.8,
    "estimated_diameter": {
        "kilometers": {
            "estimated_diameter_min": 0.0183888672,
            "estimated_diameter_max": 0.0411187571
        },
        "meters": {
            "estimated_diameter_min": 18.388867207,
            "estimated_diameter_max": 41.1187571041
        },
        "miles": {
            "estimated_diameter_min": 0.0114263088,
            "estimated_diameter_max": 0.0255500032
        },
        "feet": {
            "estimated_diameter_min": 60.3309310875,
            "estimated_diameter_max": 134.9040630575
        }
    },
    "is_potentially_hazardous_asteroid": false,
    "close_approach_data": [
        {
            "close_approach_date": "2018-08-07",
            "close_approach_date_full": "2018-Aug-07 12:20",
            "epoch_date_close_approach": 1533644400000,
            "relative_velocity": {
                "kilometers_per_second": "16.256523751",
                "kilometers_per_hour": "58523.4855034574",
                "miles_per_hour": "36364.2179785233"
            },
            "miss_distance": {
                "astronomical": "0.1235163247",
                "lunar": "48.0478503083",
                "kilometers": "18477779.085348389",
                "miles": "11481559.5166462082"
            },
            "orbiting_body": "Venus"
        },
        {
            "close_approach_date": "2018-10-02",
            "close_approach_date_full": "2018-Oct-02 16:01",
            "epoch_date_close_approach": 1538496060000,
            "relative_velocity": {
                "kilometers_per_second": "17.9346337915",
                "kilometers_per_hour": "64564.6816493302",
                "miles_per_hour": "40117.982328163"
            },
            "miss_distance": {
                "astronomical": "0.0204714764",
                "lunar": "7.9634043196",
                "kilometers": "3062489.265195268",
                "miles": "1902942.5887719784"
            },
            "orbiting_body": "Earth"
        }
    ],
    "orbital_data": {
        "orbit_id": "1",
        "orbit_determination_date": "2018-10-11 09:42:02",
        "first_observation_date": "2018-10-07",
        "last_observation_date": "2018-10-10",
        "data_arc_in_days": 3,
        "observations_used": 17,
        "orbit_uncertainty": "9",
        "minimum_orbit_intersection": ".0159516",
        "jupiter_tisserand_invariant": "3.109",
        "epoch_osculation": "2458399.5",
        "eccentricity": ".6949435681798658",
        "semi_major_axis": "2.452210878889855",
        "inclination": "1.166507193123716",
        "ascending_node_longitude": "283.4278254214224",
        "orbital_period": "1402.604245279068",
        "perihelion_distance": ".7480627007846544",
        "perihelion_argument": "18.13721414976713",
        "aphelion_distance": "4.156359056995056",
        "perihelion_time": "2458352.300710820055",
        "mean_anomaly": "12.11442512167746",
        "mean_motion": ".2566654145042694",
        "equinox": "J2000",
        "orbit_class": {
            "orbit_class_type": "APO",
            "orbit_class_description": "Near-Earth asteroid orbits which cross the Earth’s orbit similar to that of 1862 Apollo",
            "orbit_class_range": "a (semi-major axis) > 1.0 AU; q (perihelion) < 1.017 AU"
        }
    },
    "is_sentry_object": false
}